{
  "type": "FeatureCollection",
  "features": [
    {
      "type": "Feature",
      "properties": {
        "norad_id": 31307,
        "name": "GALAXY 17 (G-17)",
        "group": "intelsat",
        "lat": 1.2560554687983359,
        "lon": 111.33478539084457,
        "alt_km": 35805.609613362736,
        "timestamp": "2025-12-27T06:41:30.566233+00:00",
        "meta_object_name": "GALAXY 17 (G-17)",
        "meta_object_id": "2007-016B",
        "meta_epoch": "2025-12-26T13:30:50.905152",
        "meta_mean_motion": 1.00271679,
        "meta_eccentricity": 0.0005635,
        "meta_inclination": 2.5327,
        "meta_ra_of_asc_node": 82.127,
        "meta_arg_of_pericenter": 174.459,
        "meta_mean_anomaly": 316.4453,
        "meta_ephemeris_type": 0,
        "meta_classification_type": "U",
        "meta_norad_cat_id": 31307,
        "meta_element_set_no": 999,
        "meta_rev_at_epoch": 6807,
        "meta_bstar": 0,
        "meta_mean_motion_dot": -1.85e-06,
        "meta_mean_motion_ddot": 0,
        "tle_line1": "1 31307U 07016B   25360.56308918 -.00000185  00000+0  00000+0 0  9997",
        "tle_line2": "2 31307   2.5327  82.1270 0005635 174.4590 316.4453  1.00271679 68074"
      },
      "geometry": {
        "type": "Point",
        "coordinates": [
          111.33478539084457,
          1.2560554687983359
        ]
      }
    },
    {
      "type": "Feature",
      "properties": {
        "norad_id": 31862,
        "name": "DIRECTV 10",
        "group": "intelsat",
        "lat": 0.006469997893567646,
        "lon": 93.65235093900252,
        "alt_km": 35786.23824225405,
        "timestamp": "2025-12-27T06:41:30.566244+00:00",
        "meta_object_name": "DIRECTV 10",
        "meta_object_id": "2007-032A",
        "meta_epoch": "2025-12-25T09:09:15.831072",
        "meta_mean_motion": 1.00280696,
        "meta_eccentricity": 7.66e-05,
        "meta_inclination": 0.0126,
        "meta_ra_of_asc_node": 126.575,
        "meta_arg_of_pericenter": 111.4706,
        "meta_mean_anomaly": 250.6263,
        "meta_ephemeris_type": 0,
        "meta_classification_type": "U",
        "meta_norad_cat_id": 31862,
        "meta_element_set_no": 999,
        "meta_rev_at_epoch": 4385,
        "meta_bstar": 0,
        "meta_mean_motion_dot": -8.3e-07,
        "meta_mean_motion_ddot": 0,
        "tle_line1": "1 31862U 07032A   25359.38143323 -.00000083  00000+0  00000+0 0  9993",
        "tle_line2": "2 31862   0.0126 126.5750 0000766 111.4706 250.6263  1.00280696 43852"
      },
      "geometry": {
        "type": "Point",
        "coordinates": [
          93.65235093900252,
          0.006469997893567646
        ]
      }
    },
    {
      "type": "Feature",
      "properties": {
        "norad_id": 32253,
        "name": "INTELSAT 11 (IS-11)",
        "group": "intelsat",
        "lat": -3.094908124111647,
        "lon": -1.6993268447034255,
        "alt_km": 36141.28747848156,
        "timestamp": "2025-12-27T06:41:30.566256+00:00",
        "meta_object_name": "INTELSAT 11 (IS-11)",
        "meta_object_id": "2007-044B",
        "meta_epoch": "2025-12-26T22:22:13.902240",
        "meta_mean_motion": 0.99052995,
        "meta_eccentricity": 0.0008662,
        "meta_inclination": 3.1152,
        "meta_ra_of_asc_node": 80.8162,
        "meta_arg_of_pericenter": 172.1534,
        "meta_mean_anomaly": 341.5886,
        "meta_ephemeris_type": 0,
        "meta_classification_type": "U",
        "meta_norad_cat_id": 32253,
        "meta_element_set_no": 999,
        "meta_rev_at_epoch": 6674,
        "meta_bstar": 0,
        "meta_mean_motion_dot": -2.25e-06,
        "meta_mean_motion_ddot": 0,
        "tle_line1": "1 32253U 07044B   25360.93210535 -.00000225  00000+0  00000+0 0  9992",
        "tle_line2": "2 32253   3.1152  80.8162 0008662 172.1534 341.5886  0.99052995 66745"
      },
      "geometry": {
        "type": "Point",
        "coordinates": [
          -1.6993268447034255,
          -3.094908124111647
        ]
      }
    },
    {
      "type": "Feature",
      "properties": {
        "norad_id": 32388,
        "name": "HORIZONS-2",
        "group": "intelsat",
        "lat": 1.3965060169116696,
        "lon": 122.52343960318407,
        "alt_km": 35805.82684204998,
        "timestamp": "2025-12-27T06:41:30.566267+00:00",
        "meta_object_name": "HORIZONS-2",
        "meta_object_id": "2007-063B",
        "meta_epoch": "2025-12-26T11:37:39.127296",
        "meta_mean_motion": 1.00268933,
        "meta_eccentricity": 0.0004863,
        "meta_inclination": 2.1553,
        "meta_ra_of_asc_node": 82.8098,
        "meta_arg_of_pericenter": 197.5129,
        "meta_mean_anomaly": 275.5091,
        "meta_ephemeris_type": 0,
        "meta_classification_type": "U",
        "meta_norad_cat_id": 32388,
        "meta_element_set_no": 999,
        "meta_rev_at_epoch": 6608,
        "meta_bstar": 0,
        "meta_mean_motion_dot": -2.32e-06,
        "meta_mean_motion_ddot": 0,
        "tle_line1": "1 32388U 07063B   25360.48448064 -.00000232  00000+0  00000+0 0  9990",
        "tle_line2": "2 32388   2.1553  82.8098 0004863 197.5129 275.5091  1.00268933 66083"
      },
      "geometry": {
        "type": "Point",
        "coordinates": [
          122.52343960318407,
          1.3965060169116696
        ]
      }
    },
    {
      "type": "Feature",
      "properties": {
        "norad_id": 32729,
        "name": "DIRECTV 11",
        "group": "intelsat",
        "lat": -0.021138490907221325,
        "lon": 97.07598557520184,
        "alt_km": 35791.128893097106,
        "timestamp": "2025-12-27T06:41:30.566279+00:00",
        "meta_object_name": "DIRECTV 11",
        "meta_object_id": "2008-013A",
        "meta_epoch": "2025-12-24T22:53:59.758368",
        "meta_mean_motion": 1.00260442,
        "meta_eccentricity": 0.0001047,
        "meta_inclination": 0.0475,
        "meta_ra_of_asc_node": 199.7105,
        "meta_arg_of_pericenter": 11.4593,
        "meta_mean_anomaly": 126.8496,
        "meta_ephemeris_type": 0,
        "meta_classification_type": "U",
        "meta_norad_cat_id": 32729,
        "meta_element_set_no": 999,
        "meta_rev_at_epoch": 4384,
        "meta_bstar": 0,
        "meta_mean_motion_dot": -1.03e-06,
        "meta_mean_motion_ddot": 0,
        "tle_line1": "1 32729U 08013A   25358.95416387 -.00000103  00000+0  00000+0 0  9994",
        "tle_line2": "2 32729   0.0475 199.7105 0001047  11.4593 126.8496  1.00260442 43842"
      },
      "geometry": {
        "type": "Point",
        "coordinates": [
          97.07598557520184,
          -0.021138490907221325
        ]
      }
    },
    {
      "type": "Feature",
      "properties": {
        "norad_id": 32951,
        "name": "GALAXY 18 (G-18)",
        "group": "intelsat",
        "lat": 0.033064946561372634,
        "lon": 73.40017055111205,
        "alt_km": 35797.94440808407,
        "timestamp": "2025-12-27T06:41:30.566291+00:00",
        "meta_object_name": "GALAXY 18 (G-18)",
        "meta_object_id": "2008-024A",
        "meta_epoch": "2025-12-26T22:43:19.382304",
        "meta_mean_motion": 1.00271977,
        "meta_eccentricity": 0.00032739,
        "meta_inclination": 0.0161,
        "meta_ra_of_asc_node": 356.4765,
        "meta_arg_of_pericenter": 287.4522,
        "meta_mean_anomaly": 29.5856,
        "meta_ephemeris_type": 0,
        "meta_classification_type": "U",
        "meta_norad_cat_id": 32951,
        "meta_element_set_no": 999,
        "meta_rev_at_epoch": 4412,
        "meta_bstar": 0,
        "meta_mean_motion_dot": 4.7e-07,
        "meta_mean_motion_ddot": 0,
        "tle_line1": "1 32951U 08024A   25360.94675211  .00000047  00000+0  00000+0 0  9994",
        "tle_line2": "2 32951   0.0161 356.4765 0003273 287.4522  29.5856  1.00271977 44121"
      },
      "geometry": {
        "type": "Point",
        "coordinates": [
          73.40017055111205,
          0.033064946561372634
        ]
      }
    },
    {
      "type": "Feature",
      "properties": {
        "norad_id": 33153,
        "name": "INTELSAT 25 (IS-25)",
        "group": "intelsat",
        "lat": 2.251665296730065,
        "lon": 164.8280580543113,
        "alt_km": 35792.6035512687,
        "timestamp": "2025-12-27T06:41:30.566303+00:00",
        "meta_object_name": "INTELSAT 25 (IS-25)",
        "meta_object_id": "2008-034A",
        "meta_epoch": "2025-12-26T11:10:18.842304",
        "meta_mean_motion": 1.00271391,
        "meta_eccentricity": 0.0004996,
        "meta_inclination": 2.2611,
        "meta_ra_of_asc_node": 82.4991,
        "meta_arg_of_pericenter": 190.6323,
        "meta_mean_anomaly": 318.163,
        "meta_ephemeris_type": 0,
        "meta_classification_type": "U",
        "meta_norad_cat_id": 33153,
        "meta_element_set_no": 999,
        "meta_rev_at_epoch": 6396,
        "meta_bstar": 0,
        "meta_mean_motion_dot": -2.03e-06,
        "meta_mean_motion_ddot": 0,
        "tle_line1": "1 33153U 08034A   25360.46549586 -.00000203  00000+0  00000+0 0  9997",
        "tle_line2": "2 33153   2.2611  82.4991 0004996 190.6323 318.1630  1.00271391 63964"
      },
      "geometry": {
        "type": "Point",
        "coordinates": [
          164.8280580543113,
          2.251665296730065
        ]
      }
    }
  ]
}